ISS (ZARYA)             
1 25544U 98067A   23187.34555919  .00007611  00000+0  14335-3 0  9995
2 25544  51.6398 233.5611 0000373  12.3897  91.4664 15.49560249404764
AEROCUBE 12B            
1 43557U 18046D   23187.08230221  .00212501  00000+0  10720-2 0  9994
2 43557  51.6230  88.3755 0001004  73.6173 286.4939 15.80461782278696
ISS DEB                 
1 47853U 98067RZ  23185.77366761  .00023368  00000+0  20358-3 0  9991
2 47853  51.6338 209.1240 0002499   3.3524 356.7489 15.68894735131579
