<ndm xmlns:xsi="http://www.w3.org/2001/XMLSchema-instance" xsi:noNamespaceSchemaLocation="https://sanaregistry.org/r/ndmxml_unqualified/ndmxml-2.0.0-master-2.0.xsd">
	<omm id="CCSDS_OMM_VERS" version="2.0">
		<header>
			<CREATION_DATE>boo</CREATION_DATE>
			<ORIGINATOR/>
		</header>
		<body>
			<segment>
				<metadata>
					<OBJECT_NAME>ISS (ZARYA)</OBJECT_NAME>
					<OBJECT_ID>1998-067A</OBJECT_ID>
					<CENTER_NAME>EARTH</CENTER_NAME>
					<REF_FRAME>TEME</REF_FRAME>
					<TIME_SYSTEM>UTC</TIME_SYSTEM>
					<MEAN_ELEMENT_THEORY>SGP4</MEAN_ELEMENT_THEORY>
				</metadata>
				<data>
					<meanElements>
						<EPOCH>2023-07-10T09:45:13.310784</EPOCH>
						<MEAN_MOTION>15.49560249</MEAN_MOTION>
						<ECCENTRICITY>.0000373</ECCENTRICITY>
						<INCLINATION>51.6398</INCLINATION>
						<RA_OF_ASC_NODE>233.5611</RA_OF_ASC_NODE>
						<ARG_OF_PERICENTER>12.3897</ARG_OF_PERICENTER>
						<MEAN_ANOMALY>91.4664</MEAN_ANOMALY>
					</meanElements>
					<tleParameters>
						<EPHEMERIS_TYPE>0</EPHEMERIS_TYPE>
						<CLASSIFICATION_TYPE>U</CLASSIFICATION_TYPE>
						<NORAD_CAT_ID>25544</NORAD_CAT_ID>
						<ELEMENT_SET_NO>999</ELEMENT_SET_NO>
						<REV_AT_EPOCH>40476</REV_AT_EPOCH>
						<BSTAR>.14335E-3</BSTAR>
						<MEAN_MOTION_DOT>.7611E-4</MEAN_MOTION_DOT>
						<MEAN_MOTION_DDOT>0</MEAN_MOTION_DDOT>
					</tleParameters>
				</data>
			</segment>
		</body>
	</omm>
	<omm id="CCSDS_OMM_VERS" version="2.0">
		<header>
			<CREATION_DATE/>
			<ORIGINATOR/>
		</header>
		<body>
			<segment>
				<metadata>
					<OBJECT_NAME>AEROCUBE 12B</OBJECT_NAME>
					<OBJECT_ID>2018-046D</OBJECT_ID>
					<CENTER_NAME>EARTH</CENTER_NAME>
					<REF_FRAME>TEME</REF_FRAME>
					<TIME_SYSTEM>UTC</TIME_SYSTEM>
					<MEAN_ELEMENT_THEORY>SGP4</MEAN_ELEMENT_THEORY>
				</metadata>
				<data>
					<meanElements>
						<EPOCH>2023-07-10T09:45:13.310784</EPOCH>
						<MEAN_MOTION>15.80461782</MEAN_MOTION>
						<ECCENTRICITY>.0001004</ECCENTRICITY>
						<INCLINATION>51.6230</INCLINATION>
						<RA_OF_ASC_NODE>88.3755</RA_OF_ASC_NODE>
						<ARG_OF_PERICENTER>73.6173</ARG_OF_PERICENTER>
						<MEAN_ANOMALY>286.4939</MEAN_ANOMALY>
					</meanElements>
						<tleParameters>
						<EPHEMERIS_TYPE>0</EPHEMERIS_TYPE>
						<CLASSIFICATION_TYPE>U</CLASSIFICATION_TYPE>
						<NORAD_CAT_ID>43557</NORAD_CAT_ID>
						<ELEMENT_SET_NO>999</ELEMENT_SET_NO>
						<REV_AT_EPOCH>27869</REV_AT_EPOCH>
						<BSTAR>.1072E-2</BSTAR>
						<MEAN_MOTION_DOT>.212501E-2</MEAN_MOTION_DOT>
						<MEAN_MOTION_DDOT>0</MEAN_MOTION_DDOT>
					</tleParameters>
				</data>
			</segment>
		</body>
	</omm>
	<omm id="CCSDS_OMM_VERS" version="2.0">
		<header>
			<CREATION_DATE/>
			<ORIGINATOR/>
		</header>
		<body>
			<segment>
				<metadata>
					<OBJECT_NAME>ISS DEB</OBJECT_NAME>
					<OBJECT_ID>1998-067RZ</OBJECT_ID>
					<CENTER_NAME>EARTH</CENTER_NAME>
					<REF_FRAME>TEME</REF_FRAME>
					<TIME_SYSTEM>UTC</TIME_SYSTEM>
					<MEAN_ELEMENT_THEORY>SGP4</MEAN_ELEMENT_THEORY>
				</metadata>
				<data>
					<meanElements>
						<EPOCH>2023-07-10T09:45:13.310784</EPOCH>
						<MEAN_MOTION>15.68894735</MEAN_MOTION>
						<ECCENTRICITY>.0002499</ECCENTRICITY>
						<INCLINATION>51.6338</INCLINATION>
						<RA_OF_ASC_NODE>209.1240</RA_OF_ASC_NODE>
						<ARG_OF_PERICENTER>3.3524</ARG_OF_PERICENTER>
						<MEAN_ANOMALY>356.7489</MEAN_ANOMALY>
					</meanElements>
					<tleParameters>
						<EPHEMERIS_TYPE>0</EPHEMERIS_TYPE>
						<CLASSIFICATION_TYPE>U</CLASSIFICATION_TYPE>
						<NORAD_CAT_ID>47853</NORAD_CAT_ID>
						<ELEMENT_SET_NO>999</ELEMENT_SET_NO>
						<REV_AT_EPOCH>13157</REV_AT_EPOCH>
						<BSTAR>.20358E-3</BSTAR>
						<MEAN_MOTION_DOT>.23368E-3</MEAN_MOTION_DOT>
						<MEAN_MOTION_DDOT>0</MEAN_MOTION_DDOT>
					</tleParameters>
				</data>
			</segment>
		</body>
	</omm>
</ndm>


